CCSDS_OMM_VERS = 2.0
CREATION_DATE  = 
ORIGINATOR     = 

OBJECT_NAME    = STARLINK-36654
OBJECT_ID      = 2026-033T
CENTER_NAME    = EARTH
REF_FRAME      = TEME
TIME_SYSTEM    = UTC
MEAN_ELEMENT_THEORY = SGP/SGP4

EPOCH          = 2026-03-05T21:27:50.307264
MEAN_MOTION    = 15.82113364
ECCENTRICITY   = .00026696
INCLINATION    = 42.9975
RA_OF_ASC_NODE = 294.6134
ARG_OF_PERICENTER = 277.1486
MEAN_ANOMALY   = 82.9083

EPHEMERIS_TYPE = 0
CLASSIFICATION_TYPE = U
NORAD_CAT_ID   = 67838
ELEMENT_SET_NO = 999
REV_AT_EPOCH   = 402
BSTAR          = .13741887E-2
MEAN_MOTION_DOT = .300469E-2
MEAN_MOTION_DDOT = 0

CCSDS_OMM_VERS = 2.0
CREATION_DATE  = 
ORIGINATOR     = 

OBJECT_NAME    = STARLINK-36652
OBJECT_ID      = 2026-033U
CENTER_NAME    = EARTH
REF_FRAME      = TEME
TIME_SYSTEM    = UTC
MEAN_ELEMENT_THEORY = SGP/SGP4

EPOCH          = 2026-03-05T21:26:45.824352
MEAN_MOTION    = 15.82086589
ECCENTRICITY   = .00023729
INCLINATION    = 42.9970
RA_OF_ASC_NODE = 294.6073
ARG_OF_PERICENTER = 263.9338
MEAN_ANOMALY   = 96.1263

EPHEMERIS_TYPE = 0
CLASSIFICATION_TYPE = U
NORAD_CAT_ID   = 67839
ELEMENT_SET_NO = 999
REV_AT_EPOCH   = 402
BSTAR          = .1090664E-2
MEAN_MOTION_DOT = .236287E-2
MEAN_MOTION_DDOT = 0

CCSDS_OMM_VERS = 2.0
CREATION_DATE  = 
ORIGINATOR     = 

OBJECT_NAME    = STARLINK-36651
OBJECT_ID      = 2026-033V
CENTER_NAME    = EARTH
REF_FRAME      = TEME
TIME_SYSTEM    = UTC
MEAN_ELEMENT_THEORY = SGP/SGP4

EPOCH          = 2026-03-05T21:25:41.075328
MEAN_MOTION    = 15.82088185
ECCENTRICITY   = .00020447
INCLINATION    = 42.9969
RA_OF_ASC_NODE = 294.6014
ARG_OF_PERICENTER = 277.8251
MEAN_ANOMALY   = 82.2389

EPHEMERIS_TYPE = 0
CLASSIFICATION_TYPE = U
NORAD_CAT_ID   = 67840
ELEMENT_SET_NO = 999
REV_AT_EPOCH   = 402
BSTAR          = .10316232E-2
MEAN_MOTION_DOT = .223136E-2
MEAN_MOTION_DDOT = 0

CCSDS_OMM_VERS = 2.0
CREATION_DATE  = 
ORIGINATOR     = 

OBJECT_NAME    = STARLINK-36656
OBJECT_ID      = 2026-033W
CENTER_NAME    = EARTH
REF_FRAME      = TEME
TIME_SYSTEM    = UTC
MEAN_ELEMENT_THEORY = SGP/SGP4

EPOCH          = 2026-03-05T21:24:36.434304
MEAN_MOTION    = 15.82101405
ECCENTRICITY   = .00021917
INCLINATION    = 42.9973
RA_OF_ASC_NODE = 294.5948
ARG_OF_PERICENTER = 257.7086
MEAN_ANOMALY   = 102.3540

EPHEMERIS_TYPE = 0
CLASSIFICATION_TYPE = U
NORAD_CAT_ID   = 67841
ELEMENT_SET_NO = 999
REV_AT_EPOCH   = 402
BSTAR          = .12572322E-2
MEAN_MOTION_DOT = .273836E-2
MEAN_MOTION_DDOT = 0

CCSDS_OMM_VERS = 2.0
CREATION_DATE  = 
ORIGINATOR     = 

OBJECT_NAME    = STARLINK-36653
OBJECT_ID      = 2026-033X
CENTER_NAME    = EARTH
REF_FRAME      = TEME
TIME_SYSTEM    = UTC
MEAN_ELEMENT_THEORY = SGP/SGP4

EPOCH          = 2026-03-05T21:23:31.639488
MEAN_MOTION    = 15.82104278
ECCENTRICITY   = .00021612
INCLINATION    = 42.9974
RA_OF_ASC_NODE = 294.5888
ARG_OF_PERICENTER = 256.4929
MEAN_ANOMALY   = 103.5702

EPHEMERIS_TYPE = 0
CLASSIFICATION_TYPE = U
NORAD_CAT_ID   = 67842
ELEMENT_SET_NO = 999
REV_AT_EPOCH   = 402
BSTAR          = .13967618E-2
MEAN_MOTION_DOT = .305452E-2
MEAN_MOTION_DDOT = 0

CCSDS_OMM_VERS = 2.0
CREATION_DATE  = 
ORIGINATOR     = 

OBJECT_NAME    = STARLINK-36589
OBJECT_ID      = 2026-033Y
CENTER_NAME    = EARTH
REF_FRAME      = TEME
TIME_SYSTEM    = UTC
MEAN_ELEMENT_THEORY = SGP/SGP4

EPOCH          = 2026-03-05T21:22:26.880960
MEAN_MOTION    = 15.82109124
ECCENTRICITY   = .00023784
INCLINATION    = 42.9972
RA_OF_ASC_NODE = 294.5829
ARG_OF_PERICENTER = 275.7698
MEAN_ANOMALY   = 84.2903

EPHEMERIS_TYPE = 0
CLASSIFICATION_TYPE = U
NORAD_CAT_ID   = 67843
ELEMENT_SET_NO = 999
REV_AT_EPOCH   = 402
BSTAR          = .12871949E-2
MEAN_MOTION_DOT = .280704E-2
MEAN_MOTION_DDOT = 0

CCSDS_OMM_VERS = 2.0
CREATION_DATE  = 
ORIGINATOR     = 

OBJECT_NAME    = STARLINK-36598
OBJECT_ID      = 2026-033Z
CENTER_NAME    = EARTH
REF_FRAME      = TEME
TIME_SYSTEM    = UTC
MEAN_ELEMENT_THEORY = SGP/SGP4

EPOCH          = 2026-03-05T21:21:22.480992
MEAN_MOTION    = 15.82087818
ECCENTRICITY   = .0002089
INCLINATION    = 42.9982
RA_OF_ASC_NODE = 294.5782
ARG_OF_PERICENTER = 288.5127
MEAN_ANOMALY   = 71.5518

EPHEMERIS_TYPE = 0
CLASSIFICATION_TYPE = U
NORAD_CAT_ID   = 67844
ELEMENT_SET_NO = 999
REV_AT_EPOCH   = 402
BSTAR          = .21708327E-2
MEAN_MOTION_DOT = .484731E-2
MEAN_MOTION_DDOT = 0

CCSDS_OMM_VERS = 2.0
CREATION_DATE  = 
ORIGINATOR     = 

OBJECT_NAME    = STARLINK-36606
OBJECT_ID      = 2026-033AA
CENTER_NAME    = EARTH
REF_FRAME      = TEME
TIME_SYSTEM    = UTC
MEAN_ELEMENT_THEORY = SGP/SGP4

EPOCH          = 2026-03-05T21:20:17.545344
MEAN_MOTION    = 15.82108260
ECCENTRICITY   = .00020278
INCLINATION    = 42.9969
RA_OF_ASC_NODE = 294.5699
ARG_OF_PERICENTER = 274.7223
MEAN_ANOMALY   = 85.3417

EPHEMERIS_TYPE = 0
CLASSIFICATION_TYPE = U
NORAD_CAT_ID   = 67845
ELEMENT_SET_NO = 999
REV_AT_EPOCH   = 402
BSTAR          = .13621803E-2
MEAN_MOTION_DOT = .297659E-2
MEAN_MOTION_DDOT = 0

CCSDS_OMM_VERS = 2.0
CREATION_DATE  = 
ORIGINATOR     = 

OBJECT_NAME    = STARLINK-36658
OBJECT_ID      = 2026-033AB
CENTER_NAME    = EARTH
REF_FRAME      = TEME
TIME_SYSTEM    = UTC
MEAN_ELEMENT_THEORY = SGP/SGP4

EPOCH          = 2026-03-05T21:19:12.727200
MEAN_MOTION    = 15.82089983
ECCENTRICITY   = .00022626
INCLINATION    = 42.9969
RA_OF_ASC_NODE = 294.5634
ARG_OF_PERICENTER = 260.2691
MEAN_ANOMALY   = 99.7925

EPHEMERIS_TYPE = 0
CLASSIFICATION_TYPE = U
NORAD_CAT_ID   = 67846
ELEMENT_SET_NO = 999
REV_AT_EPOCH   = 402
BSTAR          = .99021961E-3
MEAN_MOTION_DOT = .213952E-2
MEAN_MOTION_DDOT = 0

CCSDS_OMM_VERS = 2.0
CREATION_DATE  = 
ORIGINATOR     = 

OBJECT_NAME    = STARLINK-36618
OBJECT_ID      = 2026-033AC
CENTER_NAME    = EARTH
REF_FRAME      = TEME
TIME_SYSTEM    = UTC
MEAN_ELEMENT_THEORY = SGP/SGP4

EPOCH          = 2026-03-05T22:00:01.999584
MEAN_MOTION    = 15.92587090
ECCENTRICITY   = .00016773
INCLINATION    = 42.9844
RA_OF_ASC_NODE = 292.5013
ARG_OF_PERICENTER = 277.4563
MEAN_ANOMALY   = 269.3055

EPHEMERIS_TYPE = 0
CLASSIFICATION_TYPE = U
NORAD_CAT_ID   = 67847
ELEMENT_SET_NO = 999
REV_AT_EPOCH   = 405
BSTAR          = -.37068798E-2
MEAN_MOTION_DOT = -.1312688E-1
MEAN_MOTION_DDOT = .49974067E-3

CCSDS_OMM_VERS = 2.0
CREATION_DATE  = 
ORIGINATOR     = 

OBJECT_NAME    = STARLINK-36660
OBJECT_ID      = 2026-033AD
CENTER_NAME    = EARTH
REF_FRAME      = TEME
TIME_SYSTEM    = UTC
MEAN_ELEMENT_THEORY = SGP/SGP4

EPOCH          = 2026-03-05T21:18:07.968672
MEAN_MOTION    = 15.82103257
ECCENTRICITY   = .00025017
INCLINATION    = 42.9973
RA_OF_ASC_NODE = 294.5578
ARG_OF_PERICENTER = 274.0438
MEAN_ANOMALY   = 86.0147

EPHEMERIS_TYPE = 0
CLASSIFICATION_TYPE = U
NORAD_CAT_ID   = 67848
ELEMENT_SET_NO = 999
REV_AT_EPOCH   = 402
BSTAR          = .14235687E-2
MEAN_MOTION_DOT = .311537E-2
MEAN_MOTION_DDOT = 0

CCSDS_OMM_VERS = 2.0
CREATION_DATE  = 
ORIGINATOR     = 

OBJECT_NAME    = STARLINK-36602
OBJECT_ID      = 2026-033AE
CENTER_NAME    = EARTH
REF_FRAME      = TEME
TIME_SYSTEM    = UTC
MEAN_ELEMENT_THEORY = SGP/SGP4

EPOCH          = 2026-03-05T22:47:58.174368
MEAN_MOTION    = 15.82059303
ECCENTRICITY   = .00025348
INCLINATION    = 42.9971
RA_OF_ASC_NODE = 294.1641
ARG_OF_PERICENTER = 289.2664
MEAN_ANOMALY   = 70.7933

EPHEMERIS_TYPE = 0
CLASSIFICATION_TYPE = U
NORAD_CAT_ID   = 67849
ELEMENT_SET_NO = 999
REV_AT_EPOCH   = 403
BSTAR          = .85447094E-3
MEAN_MOTION_DOT = .183639E-2
MEAN_MOTION_DDOT = 0

