STARLINK-36654          
1 67838U 26033T   26064.89433226  .00300469  00000+0  13742-2 0  9991
2 67838  42.9975 294.6134 0002669 277.1486  82.9083 15.82113364  4027
STARLINK-36652          
1 67839U 26033U   26064.89358593  .00236287  00000+0  10907-2 0  9991
2 67839  42.9970 294.6073 0002372 263.9338  96.1263 15.82086589  4020
STARLINK-36651          
1 67840U 26033V   26064.89283652  .00223136  00000+0  10316-2 0  9999
2 67840  42.9969 294.6014 0002044 277.8251  82.2389 15.82088185  4028
STARLINK-36656          
1 67841U 26033W   26064.89208836  .00273836  00000+0  12572-2 0  9999
2 67841  42.9973 294.5948 0002191 257.7086 102.3540 15.82101405  4029
STARLINK-36653          
1 67842U 26033X   26064.89133842  .00305452  00000+0  13968-2 0  9994
2 67842  42.9974 294.5888 0002161 256.4929 103.5702 15.82104278  4027
STARLINK-36589          
1 67843U 26033Y   26064.89058890  .00280704  00000+0  12872-2 0  9999
2 67843  42.9972 294.5829 0002378 275.7698  84.2903 15.82109124  4021
STARLINK-36598          
1 67844U 26033Z   26064.88984353  .00484731  00000+0  21708-2 0  9995
2 67844  42.9982 294.5782 0002089 288.5127  71.5518 15.82087818  4025
STARLINK-36606          
1 67845U 26033AA  26064.88909196  .00297659  00000+0  13622-2 0  9995
2 67845  42.9969 294.5699 0002027 274.7223  85.3417 15.82108260  4020
STARLINK-36658          
1 67846U 26033AB  26064.88834175  .00213952  00000+0  99022-3 0  9993
2 67846  42.9969 294.5634 0002262 260.2691  99.7925 15.82089983  4023
STARLINK-36618          
1 67847U 26033AC  26064.91668981 -.01312688  49974-3 -37069-2 0  9996
2 67847  42.9844 292.5013 0001677 277.4563 269.3055 15.92587090  4057
STARLINK-36660          
1 67848U 26033AD  26064.88759223  .00311537  00000+0  14236-2 0  9996
2 67848  42.9973 294.5578 0002501 274.0438  86.0147 15.82103257  4021
STARLINK-36602          
1 67849U 26033AE  26064.94997887  .00183639  00000+0  85447-3 0  9997
2 67849  42.9971 294.1641 0002534 289.2664  70.7933 15.82059303  4038
